ONEWEB-0687             
1 61595U 24188B   25228.49893243  .00000058  00000+0  11744-3 0  9992
2 61595  87.9021  66.5433 0001731 108.4414 251.6906 13.17648730 45778
ONEWEB-0688             
1 61596U 24188C   25228.52761764  .00000141  00000+0  32888-3 0  9994
2 61596  87.9019  66.5376 0002831 108.8014 251.3425 13.17648286 45773
ONEWEB-0689             
1 61597U 24188D   25228.30886506 -.00000475  00000+0 -13749-2 0  9999
2 61597  87.8756  81.8244 0001528  93.4114 266.7189 13.11414644 44495
ONEWEB-0690             
1 61598U 24188E   25228.31903518 -.00000490  00000+0 -14197-2 0  9999
2 61598  87.8798  81.7913 0002245  68.4709 291.6658 13.11415731 44679
ONEWEB-0691             
1 61599U 24188F   25228.31396276 -.00000537  00000+0 -15519-2 0  9998
2 61599  87.8716  81.7704 0002082  91.2196 268.9171 13.11415492 44526
ONEWEB-0692             
1 61600U 24188G   25228.33429432 -.00000035  00000+0 -13357-3 0  9996
2 61600  87.8785  81.8580 0000950  64.1432 295.9793 13.11420235 44512
ONEWEB-0693             
1 61601U 24188H   25228.46349751  .00000044  00000+0  79228-4 0  9994
2 61601  87.9026  66.5680 0002506  75.7827 284.3583 13.17649906 45758
ONEWEB-0695             
1 61602U 24188J   25228.31052195 -.00000879  00000+0 -25158-2 0  9991
2 61602  87.8784  81.8483 0001153  89.7521 270.3739 13.11415542 44504
